{"type":"FeatureCollection","crs":{"type":"name","properties":{"name":"EPSG:27700"}},"features":[{"type":"Feature","id":0,"geometry":{"type":"Point","coordinates":[429438.25608029886,84873.368379661872]},"properties":{"FID":0,"Id":0,"Category":"Geomorphology","Des":"An erosion event leaves a large pile of debirs at the base of the cliff."}},{"type":"Feature","id":1,"geometry":{"type":"Point","coordinates":[429381.44755130733,84910.810348083061]},"properties":{"FID":1,"Id":0,"Category":"Geology","Des":"This is an area where you can clearly see the layering of the chalk geology as it is exposed along the cliff."}},{"type":"Feature","id":2,"geometry":{"type":"Point","coordinates":[429560.2456122812,84879.889680159555]},"properties":{"FID":2,"Id":0,"Category":"Heritage","Des":"The location of The Old Battery, an area currently under The National Trust operation."}},{"type":"Feature","id":3,"geometry":{"type":"Point","coordinates":[430669.98186346958,85246.957280896255]},"properties":{"FID":3,"Id":0,"Category":"Geology","Des":"A clear change in the underlying geology, with the exposure of various mud and sand stones."}},{"type":"Feature","id":4,"geometry":{"type":"Point","coordinates":[430574.70719857683,85349.715521953476]},"properties":{"FID":4,"Id":0,"Category":"Geomorphology","Des":"The erosion of the cliffs above at Alum Bay often leaves a number of fossils on the beach for tourists to find."}},{"type":"Feature","id":5,"geometry":{"type":"Point","coordinates":[429943.96349477884,84721.058346992926]},"properties":{"FID":5,"Id":0,"Category":"Heritage","Des":"The New Battery was placed here after concerns about erosion at The Old Battery from heavy use."}},{"type":"Feature","id":6,"geometry":{"type":"Point","coordinates":[429851.66145827406,84708.128878844407]},"properties":{"FID":6,"Id":0,"Category":"Geomorphology","Des":"This area of cliff perches over a large overhang of chalk, a key phase in the process of erosion at hard cliff sites."}},{"type":"Feature","id":7,"geometry":{"type":"Point","coordinates":[428975.6181608332,84817.770768743969]},"properties":{"FID":7,"Id":0,"Category":"Geomorphology","Des":"The location of The Needles lighthouse, on the outermost of the three stacks that make up this famous landmark."}}]}